NORAD_CAT_ID,OBJECT_NAME,OBJECT_TYPE,EPOCH,MEAN_MOTION,ECCENTRICITY,INCLINATION,RA_OF_ASC_NODE,ARG_OF_PERICENTER,MEAN_ANOMALY,BSTAR,MEAN_MOTION_DOT,MEAN_MOTION_DDOT,TLE_LINE0,TLE_LINE1,TLE_LINE2,SEMIMAJOR_AXIS,PERIOD,APOGEE,PERIGEE,DECAYED
56786.0,STARLINK-6341,PAYLOAD,2024-06-15 06:46:48,14.98345013,0.0002821,69.9993,119.0355,273.0364,87.0472,-0.00011999,-1.525e-05,0.0,0 STARLINK-6341,1 56786U 23078V   24167.28250013 -.00001525  00000-0 -11999-3 0  9990,2 56786  69.9993 119.0355 0002821 273.0364  87.0472 14.98345013 58448,6950.146,96.106,573.972,570.051,0.0
56786.0,STARLINK-6341,PAYLOAD,2024-06-15 22:48:09,14.98320396,0.0002805,69.9995,117.3524,275.7955,84.2884,0.00010909,1.209e-05,0.0,0 STARLINK-6341,1 56786U 23078V   24167.95010840  .00001209  00000-0  10909-3 0  9993,2 56786  69.9995 117.3524 0002805 275.7955  84.2884 14.98320396 58540,6950.223,96.108,574.037,570.138,0.0
56786.0,STARLINK-6341,PAYLOAD,2024-06-16 13:13:21,14.98324048,0.0002763,69.9995,115.8374,275.5985,84.4858,7.3515e-05,7.84e-06,0.0,0 STARLINK-6341,1 56786U 23078V   24168.55094867  .00000784  00000-0  73515-4 0  9991,2 56786  69.9995 115.8374 0002763 275.5985  84.4858 14.98324048 58631,6950.211,96.107,573.997,570.156,0.0
56786.0,STARLINK-6341,PAYLOAD,2024-06-16 22:50:11,14.98323075,0.0002549,70.0001,114.8277,276.7071,83.3798,-0.00012593,-1.595e-05,0.0,0 STARLINK-6341,1 56786U 23078V   24168.95151688 -.00001595  00000-0 -12593-3 0  9991,2 56786  70.0001 114.8277 0002549 276.7071  83.3798 14.98323075 58690,6950.214,96.107,573.851,570.308,0.0
56786.0,STARLINK-6341,PAYLOAD,2024-06-17 21:16:03,14.98332096,0.000269,69.9997,112.4719,262.7173,97.368,2.4477e-05,1.99e-06,0.0,0 STARLINK-6341,1 56786U 23078V   24169.88614959  .00000199  00000-0  24477-4 0  9991,2 56786  69.9997 112.4719 0002690 262.7173  97.3680 14.98332096 59094,6950.186,96.107,573.921,570.182,0.0
56786.0,STARLINK-6341,PAYLOAD,2024-06-17 22:52:11,14.98332339,0.0002686,69.9997,112.3035,262.7583,97.3271,2.7585e-05,2.36e-06,0.0,0 STARLINK-6341,1 56786U 23078V   24169.95290930  .00000236  00000-0  27585-4 0  9993,2 56786  69.9997 112.3035 0002686 262.7583  97.3271 14.98332339 58842,6950.186,96.107,573.917,570.184,0.0
56786.0,STARLINK-6341,PAYLOAD,2024-06-18 13:17:23,14.98333134,0.0002664,69.9999,110.7886,265.8896,94.1958,4.4854e-05,4.42e-06,0.0,0 STARLINK-6341,1 56786U 23078V   24170.55374749  .00000442  00000-0  44854-4 0  9999,2 56786  69.9999 110.7886 0002664 265.8896  94.1958 14.98333134 58938,6950.183,96.107,573.9,570.197,0.0
56786.0,STARLINK-6341,PAYLOAD,2024-06-18 21:18:04,14.98326729,0.0002777,69.9996,109.9465,267.0253,93.0588,0.00013585,1.528e-05,0.0,0 STARLINK-6341,1 56786U 23078V   24170.88754866  .00001528  00000-0  13585-3 0  9999,2 56786  69.9996 109.9465 0002777 267.0253  93.0588 14.98326729 58988,6950.203,96.107,573.998,570.138,0.0
56786.0,STARLINK-6341,PAYLOAD,2024-06-19 03:42:35,14.98334121,0.0002673,69.9998,109.2735,265.72,94.3653,0.00021586,2.484e-05,0.0,0 STARLINK-6341,1 56786U 23078V   24171.15458154  .00002484  00000-0  21586-3 0  9993,2 56786  69.9998 109.2735 0002673 265.7200  94.3653 14.98334121 59281,6950.18,96.107,573.903,570.187,0.0
56786.0,STARLINK-6341,PAYLOAD,2024-06-19 13:19:24,14.98330104,0.0002234,70.0012,108.2652,270.912,89.1783,0.00010291,1.135e-05,0.0,0 STARLINK-6341,1 56786U 23078V   24171.55514790  .00001135  00000-0  10291-3 0  9999,2 56786  70.0012 108.2652 0002234 270.9120  89.1783 14.98330104 59081,6950.193,96.107,573.61,570.505,0.0
56786.0,STARLINK-6341,PAYLOAD,2024-06-19 21:20:05,14.98326385,0.0002585,70.0013,107.4193,270.5971,89.4892,3.0967e-06,-5.6e-07,0.0,0 STARLINK-6341,1 56786U 23078V   24171.88895125 -.00000056  00000-0  30967-5 0  9995,2 56786  70.0013 107.4193 0002585 270.5971  89.4892 14.98326385 59396,6950.204,96.107,573.866,570.272,0.0
56786.0,STARLINK-6341,PAYLOAD,2024-06-19 22:56:13,14.98328537,0.0002425,69.9998,107.2535,270.836,89.2521,-6.1064e-05,-8.21e-06,0.0,0 STARLINK-6341,1 56786U 23078V   24171.95571217 -.00000821  00000-0 -61064-4 0  9998,2 56786  69.9998 107.2535 0002425 270.8360  89.2521 14.98328537 59142,6950.197,96.107,573.748,570.377,0.0
56786.0,STARLINK-6341,PAYLOAD,2024-06-20 05:20:46,14.98325644,0.0002461,70.0002,106.5789,266.5703,93.5175,-9.5976e-05,-1.238e-05,0.0,0 STARLINK-6341,1 56786U 23078V   24172.22275515 -.00001238  00000-0 -95976-4 0  9993,2 56786  70.0002 106.5789 0002461 266.5703  93.5175 14.98325644 59180,6950.206,96.107,573.782,570.361,0.0
56786.0,STARLINK-6341,PAYLOAD,2024-06-20 22:58:14,14.98326497,0.00027,70.0001,104.7277,269.2685,90.8164,-4.0186e-06,-1.41e-06,0.0,0 STARLINK-6341,1 56786U 23078V   24172.95711173 -.00000141  00000-0 -40186-5 0  9994,2 56786  70.0001 104.7277 0002700 269.2685  90.8164 14.98326497 59552,6950.204,96.107,573.945,570.192,0.0
56786.0,STARLINK-6341,PAYLOAD,2024-06-21 05:22:46,14.98335865,0.0002665,69.9998,104.0556,267.3277,92.7577,-6.2654e-05,-8.41e-06,0.0,0 STARLINK-6341,1 56786U 23078V   24173.22414717 -.00000841  00000-0 -62654-4 0  9999,2 56786  69.9998 104.0556 0002665 267.3277  92.7577 14.98335865 59595,6950.175,96.107,573.892,570.188,0.0
56786.0,STARLINK-6341,PAYLOAD,2024-06-21 23:00:15,14.98324802,0.0002642,69.9998,102.2033,271.1495,88.9361,7.8167e-05,8.4e-06,0.0,0 STARLINK-6341,1 56786U 23078V   24173.95851010  .00000840  00000-0  78167-4 0  9993,2 56786  69.9998 102.2033 0002642 271.1495  88.9361 14.98324802 59446,6950.209,96.107,573.91,570.238,0.0
56786.0,STARLINK-6341,PAYLOAD,2024-06-22 05:24:47,14.98328206,0.0002638,69.9999,101.5313,268.4851,91.6006,7.193e-05,7.65e-06,0.0,0 STARLINK-6341,1 56786U 23078V   24174.22554861  .00000765  00000-0  71930-4 0  9995,2 56786  69.9999 101.5313 0002638 268.4851  91.6006 14.98328206 59742,6950.198,96.107,573.897,570.23,0.0
56786.0,STARLINK-6341,PAYLOAD,2024-06-22 21:26:07,14.98332566,0.000263,70.0,99.8481,268.6632,91.4226,3.9407e-05,3.77e-06,0.0,0 STARLINK-6341,1 56786U 23078V   24174.89314679  .00000377  00000-0  39407-4 0  9991,2 56786  70.0000  99.8481 0002630 268.6632  91.4226 14.98332566 59582,6950.185,96.107,573.878,570.222,0.0
56786.0,STARLINK-6341,PAYLOAD,2024-06-23 05:26:47,14.98336403,0.0002611,70.0,99.0061,269.548,90.5379,7.8429e-05,8.43e-06,0.0,0 STARLINK-6341,1 56786U 23078V   24175.22694244  .00000843  00000-0  78429-4 0  9993,2 56786  70.0000  99.0061 0002611 269.5480  90.5379 14.98336403 59895,6950.173,96.107,573.853,570.223,0.0
56786.0,STARLINK-6341,PAYLOAD,2024-06-23 21:28:08,14.98331379,0.0002509,70.0002,97.3229,265.7773,94.3099,1.6784e-05,1.07e-06,0.0,0 STARLINK-6341,1 56786U 23078V   24175.89454519  .00000107  00000-0  16784-4 0  9994,2 56786  70.0002  97.3229 0002509 265.7773  94.3099 14.98331379 59734,6950.189,96.107,573.797,570.31,0.0
56786.0,STARLINK-6341,PAYLOAD,2024-06-24 03:52:40,14.98332543,0.0002501,70.0003,96.6496,265.6045,94.4829,2.851e-05,2.47e-06,0.0,0 STARLINK-6341,1 56786U 23078V   24176.16158369  .00000247  00000-0  28510-4 0  9994,2 56786  70.0003  96.6496 0002501 265.6045  94.4829 14.98332543 60037,6950.185,96.107,573.788,570.312,0.0
56786.0,STARLINK-6341,PAYLOAD,2024-06-24 21:30:09,14.98328785,0.0002377,70.0006,94.7981,260.6855,99.4035,-6.566e-05,-8.76e-06,0.0,0 STARLINK-6341,1 56786U 23078V   24176.89594790 -.00000876  00000-0 -65660-4 0  9993,2 56786  70.0006  94.7981 0002377 260.6855  99.4035 14.98328785 59881,6950.197,96.107,573.714,570.41,0.0
56786.0,STARLINK-6341,PAYLOAD,2024-06-25 03:54:42,14.9832722,0.0002421,70.0007,94.125,262.5698,97.5186,-8.128e-05,-1.062e-05,0.0,0 STARLINK-6341,1 56786U 23078V   24177.16298964 -.00001062  00000-0 -81280-4 0  9992,2 56786  70.0007  94.1250 0002421 262.5698  97.5186 14.98327220 60185,6950.201,96.107,573.749,570.384,0.0
56786.0,STARLINK-6341,PAYLOAD,2024-06-25 19:56:02,14.98332292,0.000259,70.0004,92.4416,264.3446,95.7418,1.3859e-05,7.2e-07,0.0,0 STARLINK-6341,1 56786U 23078V   24177.83058313  .00000072  00000-0  13859-4 0  9993,2 56786  70.0004  92.4416 0002590 264.3446  95.7418 14.98332292 60289,6950.186,96.107,573.851,570.251,0.0
56786.0,STARLINK-6341,PAYLOAD,2024-06-25 21:32:10,14.98332298,0.0002599,70.0004,92.2733,264.4268,95.6595,1.3609e-05,6.9e-07,0.0,0 STARLINK-6341,1 56786U 23078V   24177.89734303  .00000069  00000-0  13609-4 0  9998,2 56786  70.0004  92.2733 0002599 264.4268  95.6595 14.98332298 60035,6950.186,96.107,573.857,570.244,0.0
56786.0,STARLINK-6341,PAYLOAD,2024-06-26 03:56:42,14.98336208,0.0002515,70.0007,91.6004,262.8675,97.2198,6.2419e-05,6.52e-06,0.0,0 STARLINK-6341,1 56786U 23078V   24178.16437855  .00000652  00000-0  62419-4 0  9992,2 56786  70.0007  91.6004 0002515 262.8675  97.2198 14.98336208 60070,6950.174,96.107,573.787,570.291,0.0
56786.0,STARLINK-6341,PAYLOAD,2024-06-27 03:58:44,14.98324357,0.0002551,70.001,89.0764,269.3426,90.7441,1.3582e-05,6.9e-07,0.0,0 STARLINK-6341,1 56786U 23078V   24179.16578859  .00000069  00000-0  13582-4 0  9992,2 56786  70.0010  89.0764 0002551 269.3426  90.7441 14.98324357 60480,6950.21,96.107,573.848,570.302,0.0
56786.0,STARLINK-6341,PAYLOAD,2024-06-27 21:36:12,14.98329525,0.0002712,70.0011,87.2256,259.4092,100.6762,-2.7443e-05,-4.2e-06,0.0,0 STARLINK-6341,1 56786U 23078V   24179.90014613 -.00000420  00000-0 -27443-4 0  9991,2 56786  70.0011  87.2256 0002712 259.4092 100.6762 14.98329525 60338,6950.194,96.107,573.944,570.174,0.0
56786.0,STARLINK-6341,PAYLOAD,2024-06-28 04:00:44,14.98331449,0.0002722,70.0012,86.5521,262.2975,97.7875,3.9821e-05,3.82e-06,0.0,0 STARLINK-6341,1 56786U 23078V   24180.16718311  .00000382  00000-0  39821-4 0  9995,2 56786  70.0012  86.5521 0002722 262.2975  97.7875 14.98331449 60631,6950.188,96.107,573.945,570.162,0.0
56786.0,STARLINK-6341,PAYLOAD,2024-06-28 20:02:04,14.98336584,0.0002804,70.0008,84.868,262.0834,98.0006,0.00010936,1.212e-05,0.0,0 STARLINK-6341,1 56786U 23078V   24180.83477532  .00001212  00000-0  10936-3 0  9994,2 56786  70.0008  84.8680 0002804 262.0834  98.0006 14.98336584 60732,6950.173,96.107,573.986,570.089,0.0
